NORAD_CAT_ID,OBJECT_NAME,OBJECT_TYPE,EPOCH,MEAN_MOTION,ECCENTRICITY,INCLINATION,RA_OF_ASC_NODE,ARG_OF_PERICENTER,MEAN_ANOMALY,BSTAR,MEAN_MOTION_DOT,MEAN_MOTION_DDOT,TLE_LINE0,TLE_LINE1,TLE_LINE2,SEMIMAJOR_AXIS,PERIOD,APOGEE,PERIGEE,DECAYED
54810.0,STARLINK-5408,PAYLOAD,2023-09-05 05:34:28,15.08847675,0.0001379,53.2166,178.3874,78.2974,281.8173,4.8238e-05,4.8e-06,0.0,0 STARLINK-5408,1 54810U 22175BE  23248.23227917  .00000480  00000-0  48238-4 0  9998,2 54810  53.2166 178.3874 0001379  78.2974 281.8173 15.08847675 39685,6917.857,95.437,540.676,538.768,0.0
54810.0,STARLINK-5408,PAYLOAD,2023-09-06 02:14:01,15.09096073,0.0001699,53.2164,174.5201,39.6155,320.4961,0.0018908,0.00030145,0.0,0 STARLINK-5408,1 54810U 22175BE  23249.09307366  .00030145  00000-0  18908-2 0  9990,2 54810  53.2164 174.5201 0001699  39.6155 320.4961 15.09096073 39811,6917.098,95.421,540.138,537.788,0.0
54810.0,STARLINK-5408,PAYLOAD,2023-09-06 10:10:22,15.09458728,0.0001929,53.2167,173.0299,68.1769,291.9428,0.0045685,0.00074443,0.0,0 STARLINK-5408,1 54810U 22175BE  23249.42387130  .00074443  00000-0  45685-2 0  9995,2 54810  53.2167 173.0299 0001929  68.1769 291.9428 15.09458728 39863,6915.99,95.398,539.189,536.521,0.0
54810.0,STARLINK-5408,PAYLOAD,2023-09-06 19:42:11,15.0966989,0.0001531,53.2167,171.2412,52.4722,307.641,0.005424,0.00089137,0.0,0 STARLINK-5408,1 54810U 22175BE  23249.82096509  .00089137  00000-0  54240-2 0  9999,2 54810  53.2167 171.2412 0001531  52.4722 307.6410 15.09669890 42082,6915.345,95.385,538.269,536.151,0.0
54810.0,STARLINK-5408,PAYLOAD,2023-09-07 06:00:00,15.10436545,0.0001374,53.2144,169.3173,80.5097,92.5723,0.0026132,0.00043429,0.0,0 STARLINK-5408,1 54810U 22175BE  23250.25001157  .00043429  00000-0  26132-2 0  9996,2 54810  53.2144 169.3173 0001374  80.5097  92.5723 15.10436545 39984,6913.005,95.337,535.82,533.92,0.0
54810.0,STARLINK-5408,PAYLOAD,2023-09-07 14:00:01,15.1044395,0.0001324,53.2143,167.8155,93.7798,92.839,0.0027562,0.00045847,0.0,0 STARLINK-5408,1 54810U 22175BE  23250.58334491  .00045847  00000-0  27562-2 0  9996,2 54810  53.2143 167.8155 0001324  93.7798  92.8390 15.10443950  5776,6912.982,95.336,535.762,533.932,0.0
54810.0,STARLINK-5408,PAYLOAD,2023-09-07 22:00:00,15.10501141,0.0001391,53.2144,166.3162,95.628,104.5271,-0.002318,-0.00038701,0.0,0 STARLINK-5408,1 54810U 22175BE  23250.91667824 -.00038701  00000-0 -23180-2 0  9997,2 54810  53.2144 166.3162 0001391  95.6280 104.5271 15.10501141  5822,6912.808,95.333,535.634,533.711,0.0
54810.0,STARLINK-5408,PAYLOAD,2023-09-08 14:00:01,15.10454905,0.0001365,53.2141,163.3149,90.6379,136.6536,0.003247,0.00054143,0.0,0 STARLINK-5408,1 54810U 22175BE  23251.58334491  .00054143  00000-0  32470-2 0  9990,2 54810  53.2141 163.3149 0001365  90.6379 136.6536 15.10454905 40190,6912.949,95.336,535.757,533.87,0.0
54810.0,STARLINK-5408,PAYLOAD,2023-09-08 22:00:00,15.10521175,0.0001449,53.2142,161.8158,92.3011,148.5408,-0.0036238,-0.00060191,0.0,0 STARLINK-5408,1 54810U 22175BE  23251.91667824 -.00060191  00000-0 -36238-2 0  9994,2 54810  53.2142 161.8158 0001449  92.3011 148.5408 15.10521175  5813,6912.746,95.331,535.613,533.61,0.0
54810.0,STARLINK-5408,PAYLOAD,2023-09-09 06:00:00,15.10453027,0.000139,53.2139,160.3163,89.1227,165.3165,0.0011184,0.00018362,0.0,0 STARLINK-5408,1 54810U 22175BE  23252.25001157  .00018362  00000-0  11184-2 0  9997,2 54810  53.2139 160.3163 0001390  89.1227 165.3165 15.10453027 40295,6912.954,95.336,535.78,533.858,0.0
54810.0,STARLINK-5408,PAYLOAD,2023-09-09 14:00:01,15.1044228,0.0001394,53.2141,158.8143,100.6545,167.336,0.003613,0.0006031,0.0,0 STARLINK-5408,1 54810U 22175BE  23252.58334491  .00060310  00000-0  36130-2 0  9991,2 54810  53.2141 158.8143 0001394 100.6545 167.3360 15.10442280  5765,6912.987,95.336,535.816,533.889,0.0
54810.0,STARLINK-5408,PAYLOAD,2023-09-10 06:00:00,15.10439801,0.0001367,53.2142,155.8157,82.7704,212.3488,0.0014612,0.00024091,0.0,0 STARLINK-5408,1 54810U 22175BE  23253.25001157  .00024091  00000-0  14612-2 0  9993,2 54810  53.2142 155.8157 0001367  82.7704 212.3488 15.10439801 40446,6912.995,95.336,535.805,533.915,0.0
54810.0,STARLINK-5408,PAYLOAD,2023-09-10 08:00:01,15.10458943,0.0001366,53.2143,155.4401,83.8634,304.6316,-0.00061479,-0.00010508,0.0,0 STARLINK-5408,1 54810U 22175BE  23253.33334491 -.00010508  00000-0 -61479-3 0  9996,2 54810  53.2143 155.4401 0001366  83.8634 304.6316 15.10458943  5734,6912.936,95.335,535.746,533.857,0.0
54810.0,STARLINK-5408,PAYLOAD,2023-09-11 02:55:53,15.10478338,0.0001515,53.2154,151.8885,96.3427,263.7738,-5.2888e-05,-1.173e-05,0.0,0 STARLINK-5408,1 54810U 22175BE  23254.12215059 -.00001173  00000-0 -52888-4 0  9995,2 54810  53.2154 151.8885 0001515  96.3427 263.7738 15.10478338 40571,6912.877,95.334,535.789,533.695,0.0
54810.0,STARLINK-5408,PAYLOAD,2023-09-11 10:52:18,15.10476896,0.0001409,53.2162,150.3994,102.8258,257.2893,-9.1412e-05,-1.814e-05,0.0,0 STARLINK-5408,1 54810U 22175BE  23254.45299314 -.00001814  00000-0 -91412-4 0  9995,2 54810  53.2162 150.3994 0001409 102.8258 257.2893 15.10476896 42784,6912.882,95.334,535.721,533.773,0.0
54810.0,STARLINK-5408,PAYLOAD,2023-09-11 20:23:59,15.10479338,0.0001278,53.2159,148.6124,88.9434,271.1705,4.8281e-05,5.11e-06,0.0,0 STARLINK-5408,1 54810U 22175BE  23254.84999539  .00000511  00000-0  48281-4 0  9991,2 54810  53.2159 148.6124 0001278  88.9434 271.1705 15.10479338 42847,6912.874,95.334,535.623,533.856,0.0
54810.0,STARLINK-5408,PAYLOAD,2023-09-12 20:13:15,15.10465612,0.0001298,53.2158,144.1449,58.3285,301.7834,-4.3138e-05,-1.01e-05,0.0,0 STARLINK-5408,1 54810U 22175BE  23255.84253575 -.00001010  00000-0 -43138-4 0  9998,2 54810  53.2158 144.1449 0001298  58.3285 301.7834 15.10465612 42993,6912.916,95.335,535.678,533.884,0.0
54810.0,STARLINK-5408,PAYLOAD,2023-09-12 23:23:49,15.10464954,0.0001206,53.2156,143.5495,76.5262,283.5865,-5.5226e-05,-1.211e-05,0.0,0 STARLINK-5408,1 54810U 22175BE  23255.97487292 -.00001211  00000-0 -55226-4 0  9991,2 54810  53.2156 143.5495 0001206  76.5262 283.5865 15.10464954 40853,6912.918,95.335,535.617,533.949,0.0
54810.0,STARLINK-5408,PAYLOAD,2023-09-13 16:51:53,15.1048491,0.0001166,53.2163,140.2754,83.5019,276.6107,4.3666e-05,4.35e-06,0.0,0 STARLINK-5408,1 54810U 22175BE  23256.70270434  .00000435  00000-0  43666-4 0  9991,2 54810  53.2163 140.2754 0001166  83.5019 276.6107 15.10484910 40964,6912.857,95.334,535.528,533.916,0.0
54810.0,STARLINK-5408,PAYLOAD,2023-09-13 21:37:43,15.10499964,0.0001182,53.2158,139.3806,77.5257,282.5868,0.00016454,2.449e-05,0.0,0 STARLINK-5408,1 54810U 22175BE  23256.90119486  .00002449  00000-0  16454-3 0  9993,2 54810  53.2158 139.3806 0001182  77.5257 282.5868 15.10499964 43159,6912.811,95.333,535.493,533.859,0.0
54810.0,STARLINK-5408,PAYLOAD,2023-09-13 23:13:00,15.10494077,0.0001408,53.217,139.0861,105.2363,254.8785,0.00024922,3.861e-05,0.0,0 STARLINK-5408,1 54810U 22175BE  23256.96736134  .00003861  00000-0  24922-3 0  9992,2 54810  53.2170 139.0861 0001408 105.2363 254.8785 15.10494077 41001,6912.829,95.333,535.667,533.721,0.0
54810.0,STARLINK-5408,PAYLOAD,2023-09-14 21:26:59,15.10463082,0.0001228,53.2162,134.9155,92.4554,267.6579,-1.1435e-06,-3.12e-06,0.0,0 STARLINK-5408,1 54810U 22175BE  23257.89374813 -.00000312  00000-0 -11435-5 0  9994,2 54810  53.2162 134.9155 0001228  92.4554 267.6579 15.10463082 43301,6912.924,95.335,535.638,533.94,0.0
54810.0,STARLINK-5408,PAYLOAD,2023-09-14 23:02:16,15.1046155,0.0001237,53.2161,134.6167,89.8039,270.3095,-1.3068e-05,-5.1e-06,0.0,0 STARLINK-5408,1 54810U 22175BE  23257.95991796 -.00000510  00000-0 -13068-4 0  9999,2 54810  53.2161 134.6167 0001237  89.8039 270.3095 15.10461550 41151,6912.928,95.335,535.649,533.938,0.0
54810.0,STARLINK-5408,PAYLOAD,2023-09-15 22:51:29,15.1049284,0.0001273,53.2166,130.1502,94.8606,265.2533,-9.5036e-05,-1.875e-05,0.0,0 STARLINK-5408,1 54810U 22175BE  23258.95242348 -.00001875  00000-0 -95036-4 0  9992,2 54810  53.2166 130.1502 0001273  94.8606 265.2533 15.10492840 41309,6912.833,95.333,535.578,533.818,0.0
54810.0,STARLINK-5408,PAYLOAD,2023-09-16 02:02:03,15.10493701,0.0001265,53.2164,129.5542,95.075,265.0387,-7.7094e-05,-1.576e-05,0.0,0 STARLINK-5408,1 54810U 22175BE  23259.08475754 -.00001576  00000-0 -77094-4 0  9998,2 54810  53.2164 129.5542 0001265  95.0750 265.0387 15.10493701 43480,6912.83,95.333,535.57,533.821,0.0
54810.0,STARLINK-5408,PAYLOAD,2023-09-16 22:40:44,15.10469742,0.0001323,53.2169,125.6839,98.472,261.6423,7.8955e-05,1.022e-05,0.0,0 STARLINK-5408,1 54810U 22175BE  23259.94495495  .00001022  00000-0  78955-4 0  9998,2 54810  53.2169 125.6839 0001323  98.4720 261.6423 15.10469742 41456,6912.903,95.335,535.683,533.854,0.0
54810.0,STARLINK-5408,PAYLOAD,2023-09-18 00:05:14,15.10489508,0.0001329,53.2169,120.9175,86.3627,273.7517,2.2129e-05,7.6e-07,0.0,0 STARLINK-5408,1 54810U 22175BE  23261.00363601  .00000076  00000-0  22129-4 0  9991,2 54810  53.2169 120.9175 0001329  86.3627 273.7517 15.10489508 41613,6912.843,95.333,535.627,533.789,0.0
54810.0,STARLINK-5408,PAYLOAD,2023-09-18 20:43:55,15.1047525,0.0001377,53.2171,117.0444,94.5538,265.5612,-2.0493e-05,-6.34e-06,0.0,0 STARLINK-5408,1 54810U 22175BE  23261.86383203 -.00000634  00000-0 -20493-4 0  9999,2 54810  53.2171 117.0444 0001377  94.5538 265.5612 15.10475250 43905,6912.887,95.334,535.703,533.8,0.0
54810.0,STARLINK-5408,PAYLOAD,2023-09-18 22:19:11,15.10477732,0.0001519,53.2178,116.7461,87.2385,272.8781,1.3132e-05,-7.4e-07,0.0,0 STARLINK-5408,1 54810U 22175BE  23261.92999814 -.00000074  00000-0  13132-4 0  9996,2 54810  53.2178 116.7461 0001519  87.2385 272.8781 15.10477732 41750,6912.879,95.334,535.794,533.694,0.0
54810.0,STARLINK-5408,PAYLOAD,2023-09-19 18:57:50,15.10491619,0.0001403,53.2171,112.8777,84.1509,275.9644,2.4322e-05,1.12e-06,0.0,0 STARLINK-5408,1 54810U 22175BE  23262.79017253  .00000112  00000-0  24322-4 0  9995,2 54810  53.2171 112.8777 0001403  84.1509 275.9644 15.10491619 41882,6912.837,95.333,535.672,533.732,0.0
